STARLINK-31211          
1 59031U 24038J   26022.93439481  .00014869  00000+0  54885-3 0  9998
2 59031  43.0016 285.1508 0001317 271.4169  88.6532 15.27575350107656
STARLINK-30862          
1 59032U 24038K   26022.98196951  .00000802  00000+0  38677-4 0  9990
2 59032  43.0056 274.3080 0000734 293.8958  66.1816 15.27559742107789
STARLINK-31210          
1 59033U 24038L   26022.76440422  .00012632  00000+0  46795-3 0  9995
2 59033  43.0024 283.0075 0001268 250.8082 109.2633 15.27567635107832
STARLINK-31231          
1 59034U 24038M   26022.76057290  .00003428  00000+0  13425-3 0  9990
2 59034  43.0009 282.9791 0001118 279.2979  80.7746 15.27529510107662
STARLINK-31207          
1 59035U 24038N   26022.75669886  .00003274  00000+0  12852-3 0  9992
2 59035  42.9923 282.9488 0000680 284.6338  75.4438 15.27556651107835
STARLINK-31217          
1 59036U 24038P   26022.80955401 -.00000899  00000+0 -23161-4 0  9998
2 59036  43.0018 188.3284 0001173 269.7738  90.2979 15.27569896108923
STARLINK-31208          
1 59037U 24038Q   26022.99347489  .00007959  00000+0  29828-3 0  9997
2 59037  42.9996 285.5573 0000947 237.9393 122.1367 15.27596955107820
STARLINK-31235          
1 59038U 24038R   26022.75412546  .00009551  00000+0  35598-3 0  9990
2 59038  42.9982 282.9278 0000796 294.1295  65.9474 15.27593467107779
STARLINK-31220          
1 59039U 24038S   26022.75622586  .00005056  00000+0  19343-3 0  9994
2 59039  43.0057 286.3869 0001882 267.9015  92.1621 15.27529834107733
STARLINK-31225          
1 59040U 24038T   26022.73998680  .00010344  00000+0  38499-3 0  9994
2 59040  43.0030 282.7842 0001809 273.9834  86.0811 15.27571751107662
STARLINK-31240          
1 59041U 24038U   26022.77854454  .00013271  00000+0  49117-3 0  9990
2 59041  43.0010 283.1151 0001434 243.1945 116.8760 15.27562851107773
STARLINK-31202          
1 59042U 24038V   26022.78225489  .00001126  00000+0  50460-4 0  9992
2 59042  43.0053 282.2931 0001721 280.7298  79.3360 15.27578078107849
STARLINK-31234          
1 59043U 24038W   26022.77211974  .00012066  00000+0  44726-3 0  9998
2 59043  43.0078 283.0645 0002303 269.0189  91.0399 15.27579765107661
STARLINK-31153          
1 59044U 24038X   26022.75027996  .00004485  00000+0  17262-3 0  9997
2 59044  43.0003 282.8973 0001457 263.1285  96.9401 15.27536790107661
STARLINK-31241          
1 59045U 24038Y   26022.77596475  .00006271  00000+0  23711-3 0  9994
2 59045  42.9990 283.0897 0001181 230.1905 129.8843 15.27591354107832
STARLINK-31205          
1 59046U 24038Z   26022.76825255  .00003490  00000+0  13639-3 0  9993
2 59046  43.0038 283.0343 0001986 263.0700  96.9926 15.27560513107777
