[{"OBJECT_NAME":"STARLINK-31211","OBJECT_ID":"2024-038J","EPOCH":"2026-01-22T22:25:31.711584","MEAN_MOTION":15.2757535,"ECCENTRICITY":0.00013177,"INCLINATION":43.0016,"RA_OF_ASC_NODE":285.1508,"ARG_OF_PERICENTER":271.4169,"MEAN_ANOMALY":88.6532,"EPHEMERIS_TYPE":0,"CLASSIFICATION_TYPE":"U","NORAD_CAT_ID":59031,"ELEMENT_SET_NO":999,"REV_AT_EPOCH":10765,"BSTAR":0.00054885411,"MEAN_MOTION_DOT":0.00014869,"MEAN_MOTION_DDOT":0},{"OBJECT_NAME":"STARLINK-30862","OBJECT_ID":"2024-038K","EPOCH":"2026-01-22T23:34:02.165664","MEAN_MOTION":15.27559742,"ECCENTRICITY":7.341e-5,"INCLINATION":43.0056,"RA_OF_ASC_NODE":274.308,"ARG_OF_PERICENTER":293.8958,"MEAN_ANOMALY":66.1816,"EPHEMERIS_TYPE":0,"CLASSIFICATION_TYPE":"U","NORAD_CAT_ID":59032,"ELEMENT_SET_NO":999,"REV_AT_EPOCH":10778,"BSTAR":3.8677207e-5,"MEAN_MOTION_DOT":8.02e-6,"MEAN_MOTION_DDOT":0},{"OBJECT_NAME":"STARLINK-31210","OBJECT_ID":"2024-038L","EPOCH":"2026-01-22T18:20:44.524608","MEAN_MOTION":15.27567635,"ECCENTRICITY":0.00012685,"INCLINATION":43.0024,"RA_OF_ASC_NODE":283.0075,"ARG_OF_PERICENTER":250.8082,"MEAN_ANOMALY":109.2633,"EPHEMERIS_TYPE":0,"CLASSIFICATION_TYPE":"U","NORAD_CAT_ID":59033,"ELEMENT_SET_NO":999,"REV_AT_EPOCH":10783,"BSTAR":0.00046794543,"MEAN_MOTION_DOT":0.00012632,"MEAN_MOTION_DDOT":0},{"OBJECT_NAME":"STARLINK-31231","OBJECT_ID":"2024-038M","EPOCH":"2026-01-22T18:15:13.498560","MEAN_MOTION":15.2752951,"ECCENTRICITY":0.0001118,"INCLINATION":43.0009,"RA_OF_ASC_NODE":282.9791,"ARG_OF_PERICENTER":279.2979,"MEAN_ANOMALY":80.7746,"EPHEMERIS_TYPE":0,"CLASSIFICATION_TYPE":"U","NORAD_CAT_ID":59034,"ELEMENT_SET_NO":999,"REV_AT_EPOCH":10766,"BSTAR":0.00013424741,"MEAN_MOTION_DOT":3.428e-5,"MEAN_MOTION_DDOT":0},{"OBJECT_NAME":"STARLINK-31207","OBJECT_ID":"2024-038N","EPOCH":"2026-01-22T18:09:38.781504","MEAN_MOTION":15.27556651,"ECCENTRICITY":6.803e-5,"INCLINATION":42.9923,"RA_OF_ASC_NODE":282.9488,"ARG_OF_PERICENTER":284.6338,"MEAN_ANOMALY":75.4438,"EPHEMERIS_TYPE":0,"CLASSIFICATION_TYPE":"U","NORAD_CAT_ID":59035,"ELEMENT_SET_NO":999,"REV_AT_EPOCH":10783,"BSTAR":0.00012852108,"MEAN_MOTION_DOT":3.274e-5,"MEAN_MOTION_DDOT":0},{"OBJECT_NAME":"STARLINK-31217","OBJECT_ID":"2024-038P","EPOCH":"2026-01-22T19:25:45.466464","MEAN_MOTION":15.27569896,"ECCENTRICITY":0.00011735,"INCLINATION":43.0018,"RA_OF_ASC_NODE":188.3284,"ARG_OF_PERICENTER":269.7738,"MEAN_ANOMALY":90.2979,"EPHEMERIS_TYPE":0,"CLASSIFICATION_TYPE":"U","NORAD_CAT_ID":59036,"ELEMENT_SET_NO":999,"REV_AT_EPOCH":10892,"BSTAR":-2.3160615e-5,"MEAN_MOTION_DOT":-8.99e-6,"MEAN_MOTION_DDOT":0},{"OBJECT_NAME":"STARLINK-31208","OBJECT_ID":"2024-038Q","EPOCH":"2026-01-22T23:50:36.230496","MEAN_MOTION":15.27596955,"ECCENTRICITY":9.479e-5,"INCLINATION":42.9996,"RA_OF_ASC_NODE":285.5573,"ARG_OF_PERICENTER":237.9393,"MEAN_ANOMALY":122.1367,"EPHEMERIS_TYPE":0,"CLASSIFICATION_TYPE":"U","NORAD_CAT_ID":59037,"ELEMENT_SET_NO":999,"REV_AT_EPOCH":10782,"BSTAR":0.00029827694,"MEAN_MOTION_DOT":7.959e-5,"MEAN_MOTION_DDOT":0},{"OBJECT_NAME":"STARLINK-31235","OBJECT_ID":"2024-038R","EPOCH":"2026-01-22T18:05:56.439744","MEAN_MOTION":15.27593467,"ECCENTRICITY":7.961e-5,"INCLINATION":42.9982,"RA_OF_ASC_NODE":282.9278,"ARG_OF_PERICENTER":294.1295,"MEAN_ANOMALY":65.9474,"EPHEMERIS_TYPE":0,"CLASSIFICATION_TYPE":"U","NORAD_CAT_ID":59038,"ELEMENT_SET_NO":999,"REV_AT_EPOCH":10777,"BSTAR":0.00035598313,"MEAN_MOTION_DOT":9.551e-5,"MEAN_MOTION_DDOT":0},{"OBJECT_NAME":"STARLINK-31220","OBJECT_ID":"2024-038S","EPOCH":"2026-01-22T18:08:57.914304","MEAN_MOTION":15.27529834,"ECCENTRICITY":0.00018823,"INCLINATION":43.0057,"RA_OF_ASC_NODE":286.3869,"ARG_OF_PERICENTER":267.9015,"MEAN_ANOMALY":92.1621,"EPHEMERIS_TYPE":0,"CLASSIFICATION_TYPE":"U","NORAD_CAT_ID":59039,"ELEMENT_SET_NO":999,"REV_AT_EPOCH":10773,"BSTAR":0.000193428,"MEAN_MOTION_DOT":5.056e-5,"MEAN_MOTION_DDOT":0},{"OBJECT_NAME":"STARLINK-31225","OBJECT_ID":"2024-038T","EPOCH":"2026-01-22T17:45:34.859520","MEAN_MOTION":15.27571751,"ECCENTRICITY":0.00018099,"INCLINATION":43.003,"RA_OF_ASC_NODE":282.7842,"ARG_OF_PERICENTER":273.9834,"MEAN_ANOMALY":86.0811,"EPHEMERIS_TYPE":0,"CLASSIFICATION_TYPE":"U","NORAD_CAT_ID":59040,"ELEMENT_SET_NO":999,"REV_AT_EPOCH":10766,"BSTAR":0.00038498843,"MEAN_MOTION_DOT":0.00010344,"MEAN_MOTION_DDOT":0},{"OBJECT_NAME":"STARLINK-31240","OBJECT_ID":"2024-038U","EPOCH":"2026-01-22T18:41:06.248256","MEAN_MOTION":15.27562851,"ECCENTRICITY":0.00014348,"INCLINATION":43.001,"RA_OF_ASC_NODE":283.1151,"ARG_OF_PERICENTER":243.1945,"MEAN_ANOMALY":116.876,"EPHEMERIS_TYPE":0,"CLASSIFICATION_TYPE":"U","NORAD_CAT_ID":59041,"ELEMENT_SET_NO":999,"REV_AT_EPOCH":10777,"BSTAR":0.00049116592,"MEAN_MOTION_DOT":0.00013271,"MEAN_MOTION_DDOT":0},{"OBJECT_NAME":"STARLINK-31202","OBJECT_ID":"2024-038V","EPOCH":"2026-01-22T18:46:26.822496","MEAN_MOTION":15.27578078,"ECCENTRICITY":0.00017213,"INCLINATION":43.0053,"RA_OF_ASC_NODE":282.2931,"ARG_OF_PERICENTER":280.7298,"MEAN_ANOMALY":79.336,"EPHEMERIS_TYPE":0,"CLASSIFICATION_TYPE":"U","NORAD_CAT_ID":59042,"ELEMENT_SET_NO":999,"REV_AT_EPOCH":10784,"BSTAR":5.0460294e-5,"MEAN_MOTION_DOT":1.126e-5,"MEAN_MOTION_DDOT":0},{"OBJECT_NAME":"STARLINK-31234","OBJECT_ID":"2024-038W","EPOCH":"2026-01-22T18:31:51.145536","MEAN_MOTION":15.27579765,"ECCENTRICITY":0.00023037,"INCLINATION":43.0078,"RA_OF_ASC_NODE":283.0645,"ARG_OF_PERICENTER":269.0189,"MEAN_ANOMALY":91.0399,"EPHEMERIS_TYPE":0,"CLASSIFICATION_TYPE":"U","NORAD_CAT_ID":59043,"ELEMENT_SET_NO":999,"REV_AT_EPOCH":10766,"BSTAR":0.00044726,"MEAN_MOTION_DOT":0.00012066,"MEAN_MOTION_DDOT":0},{"OBJECT_NAME":"STARLINK-31153","OBJECT_ID":"2024-038X","EPOCH":"2026-01-22T18:00:24.188544","MEAN_MOTION":15.2753679,"ECCENTRICITY":0.00014576,"INCLINATION":43.0003,"RA_OF_ASC_NODE":282.8973,"ARG_OF_PERICENTER":263.1285,"MEAN_ANOMALY":96.9401,"EPHEMERIS_TYPE":0,"CLASSIFICATION_TYPE":"U","NORAD_CAT_ID":59044,"ELEMENT_SET_NO":999,"REV_AT_EPOCH":10766,"BSTAR":0.00017262239,"MEAN_MOTION_DOT":4.485e-5,"MEAN_MOTION_DDOT":0},{"OBJECT_NAME":"STARLINK-31241","OBJECT_ID":"2024-038Y","EPOCH":"2026-01-22T18:37:23.354400","MEAN_MOTION":15.27591354,"ECCENTRICITY":0.00011815,"INCLINATION":42.999,"RA_OF_ASC_NODE":283.0897,"ARG_OF_PERICENTER":230.1905,"MEAN_ANOMALY":129.8843,"EPHEMERIS_TYPE":0,"CLASSIFICATION_TYPE":"U","NORAD_CAT_ID":59045,"ELEMENT_SET_NO":999,"REV_AT_EPOCH":10783,"BSTAR":0.0002371095,"MEAN_MOTION_DOT":6.271e-5,"MEAN_MOTION_DDOT":0},{"OBJECT_NAME":"STARLINK-31205","OBJECT_ID":"2024-038Z","EPOCH":"2026-01-22T18:26:17.020320","MEAN_MOTION":15.27560513,"ECCENTRICITY":0.00019869,"INCLINATION":43.0038,"RA_OF_ASC_NODE":283.0343,"ARG_OF_PERICENTER":263.07,"MEAN_ANOMALY":96.9926,"EPHEMERIS_TYPE":0,"CLASSIFICATION_TYPE":"U","NORAD_CAT_ID":59046,"ELEMENT_SET_NO":999,"REV_AT_EPOCH":10777,"BSTAR":0.00013639042,"MEAN_MOTION_DOT":3.49e-5,"MEAN_MOTION_DDOT":0}]
